SAUDISAT 1C             
1 27607U 02058C   20121.25053188 -.00000025  00000-0  17051-4 0  9991
2 27607  64.5542 161.7460 0054070 190.1420 169.8596 14.75629641933619
SAUDISAT 2              
1 28371U 04025F   20121.82829115  .00000055  00000-0  23729-4 0  9991
2 28371  98.2773  71.2163 0025223 342.6938  17.3409 14.54377940840255
SAUDISAT 3              
1 31118U 07012B   20121.89091757 -.00000002  00000-0  76165-5 0  9999
2 31118  97.8652  81.8648 0015794 150.3981 209.8122 14.69161338698987
PISAT                   
1 41784U 16059B   20121.16106692  .00000081  00000-0  24496-4 0  9990
2 41784  98.0231 178.9549 0033348 105.2697 255.2196 14.63507147191844
FLYING LAPTOP           
1 42831U 17042G   20121.28145657  .00000225  00000-0  27937-4 0  9997
2 42831  97.5279   5.4311 0015716  86.0161 274.2855 14.91113992152118
